[{"OBJECT_NAME":"STARLINK-30876","OBJECT_ID":"2023-180C","EPOCH":"2026-03-09T22:00:01.999584","MEAN_MOTION":15.27561504,"ECCENTRICITY":0.00018441,"INCLINATION":43.0029,"RA_OF_ASC_NODE":51.5147,"ARG_OF_PERICENTER":264.9735,"MEAN_ANOMALY":247.5647,"EPHEMERIS_TYPE":0,"CLASSIFICATION_TYPE":"U","NORAD_CAT_ID":58404,"ELEMENT_SET_NO":999,"REV_AT_EPOCH":578,"BSTAR":0.0014677536,"MEAN_MOTION_DOT":0.00040326,"MEAN_MOTION_DDOT":0},{"OBJECT_NAME":"CZ-4C DEB","OBJECT_ID":"2015-069C","EPOCH":"2026-03-07T10:00:21.558816","MEAN_MOTION":15.31048021,"ECCENTRICITY":0.00583916,"INCLINATION":97.4862,"RA_OF_ASC_NODE":135.8649,"ARG_OF_PERICENTER":162.5456,"MEAN_ANOMALY":197.781,"EPHEMERIS_TYPE":0,"CLASSIFICATION_TYPE":"U","NORAD_CAT_ID":42670,"ELEMENT_SET_NO":999,"REV_AT_EPOCH":51749,"BSTAR":0.00045809658,"MEAN_MOTION_DOT":0.00014416,"MEAN_MOTION_DDOT":0}]
